id,names,categories,altCategories,websites,socials,phones,brand,street,city,postcode,state,country
08f26e8b35b46b8d03eecd1dfd6f0a83,Magnolia Trading Post,clothing_store,,"[""http://www.magnoliatradingpost.com""]","[""https://www.facebook.com/1693937694181742""]","[""+14794278870""]",,1004 S Mount Olive St,Siloam Springs,72761-4222,AR,US
08f26e8b35b6e05303f14f3c81250d48,Factory Connection,clothing_store,,"[""http://www.factory-connection.com""]","[""https://www.facebook.com/1971391032914476""]","[""+14795798196""]","{""names"":{""common"":[{""value"":""Factory Connection"",""language"":""local""}],""official"":null,""alternate"":null,""short"":null},""wikidata"":null}",127 Highway 412 E,Siloam Springs,72761-4772,AR,US
08f26ed550890d0303267379ba39a489,The Red Shoe Dancewear Boutique,clothing_store,,"[""http://www.theredshoedancewear.com""]","[""https://www.facebook.com/477197495502""]","[""+14792540334""]",,810 NW 3rd St,Bentonville,72712-5136,AR,US
08f265e495c6c524033410340a7335dd,Queen Elizabeth (Dressin Gaudy),women's_clothing_store,,"[""http://www.queenelizabethfashions.com""]","[""https://www.facebook.com/429246407179142""]","[""+14173363465""]",,3265 Falls Pkwy,Branson,65616-3472,MO,US
08f265e4b305ba6d0365d20b3a515fbe,Beautiful Dresses In Arizona,women's_clothing_store,,"[""http://www.beautifuldressesaz.com/""]","[""https://www.facebook.com/907391955966815""]","[""+13147362664""]",,7700 W Arrowhead Towne Ctr,Glendale,85308-8612,AZ,US
08f265e4b3b0b99e03bea82f5671ee43,Girlie Girl Originals,clothing_store,,"[""https://girliegirlwholesale.com""]","[""https://www.facebook.com/103556779729470""]","[""+14172134415""]",,300 Tanger Blvd,Branson,65616-2185,MO,US
08f265e4a348d87203863f9bb94b7f18,francesca's,women's_clothing_store,,"[""https://www.francescas.com/""]","[""https://www.facebook.com/147143278642114""]","[""+14176903332""]","{""names"":{""common"":[{""value"":""francesca's"",""language"":""local""}],""official"":null,""alternate"":null,""short"":null},""wikidata"":null}",319 Branson Landing Blvd,Branson,65616-2088,MO,US
08f265e4a359167303eee6823191f20e,"Freebird & Co., LLC",clothing_store,,"[""https://www.freebirdandcompany.com/""]","[""https://www.facebook.com/666011710402726""]","[""+14175440788""]",,214 S Commercial St,Branson,65616-2704,MO,US
08f2653205d2b98503ed7729ec4e4c96,LUK Boutique,women's_clothing_store,,"[""http://lukboutique.com""]","[""https://www.facebook.com/1409459692635390""]","[""+14174945008""]",,111 S Main St,Nixa,65714-9608,MO,US
08f265338398409803107d18d10fba9e,Twisted Willow Boutique,women's_clothing_store,,"[""http://twistedwillowbtq.com""]","[""https://www.facebook.com/105104744948539""]","[""+14173401992""]",,562 E Harrison St,Republic,65738-1353,MO,US
08f26533034685b5038e456700664070,Yesterday Vintage Boutique,clothing_store,,"[""https://www.etsy.com/shop/yesterdayvintage1964""]","[""https://www.facebook.com/939614342716129""]","[""+14176319841""]",,3211 S Campbell Ave,Springfield,65807-4912,MO,US
08f265331d10843503ad864182c52cdf,A Likely Story Boutique,women's_clothing_store,,"[""http://www.alikelystoryboutique.com/""]","[""https://www.facebook.com/567485693593106""]","[""+14179269113""]",,238 E Republic Rd,Springfield,65807-6000,MO,US
08f265330e78330303de059082cc3628,Cotner Clothing Boutique (cc Boutique),women's_clothing_store,,"[""https://999peizi.com/app333""]","[""https://www.facebook.com/408669143303354""]","[""+14175011435""]",,1274 E Republic Rd,Springfield,65804-7209,MO,US
08f265330e382601036f35d74f29719a,Harem & Co,women's_clothing_store,,"[""http://www.shopharem.com""]","[""https://www.facebook.com/320878204650909""]","[""+14178810602""]",,1638 E Republic Rd,Springfield,65804-6509,MO,US
08f26533010ab20e031645ad342d396d,Altar'd State,women's_clothing_store,,"[""https://www.altardstate.com/""]","[""https://www.facebook.com/245354979363610""]","[""+14172812800""]","{""names"":{""common"":[{""value"":""Altar'd State"",""language"":""local""}],""official"":null,""alternate"":null,""short"":null},""wikidata"":null}",2825 S Glenstone Ave,Springfield,65804-3771,MO,US
08f26533010f60a9030693dff5d18863,francesca's,women's_clothing_store,,"[""https://www.francescas.com/""]","[""https://www.facebook.com/1415667162028258""]","[""+14174477159""]","{""names"":{""common"":[{""value"":""francesca's"",""language"":""local""}],""official"":null,""alternate"":null,""short"":null},""wikidata"":null}",2825 S Glenstone Ave,Springfield,65804-3771,MO,US
08f2653301152aac03c25c2b13dce000,Modern Society Apparel,women's_clothing_store,,"[""http://modernsocietyapparel.com""]","[""https://www.facebook.com/276479929045206""]","[""+14178310775""]",,2652 S Glenstone Ave,Springfield,65804-3712,MO,US
08f2653301152d28030ce17869fd4e3c,Apricot Lane Boutique,women's_clothing_store,,"[""https://apricotlaneboutique.com/store/springfield""]",,"[""4175011761""]",,2646 S Glenstone Ave,Springfield,65804,MO,US
08f265330560e89103c489e60dd50375,Harrison House Market,women's_clothing_store,,"[""https://harrisonhousemarket.com""]","[""https://www.facebook.com/103569095862635""]","[""+14173513122""]","{""names"":{""common"":[{""value"":""Harrison House Market"",""language"":""local""}],""official"":null,""alternate"":null,""short"":null},""wikidata"":null}",1717 E Cherokee St,Springfield,65804-2335,MO,US
08f26530e481c3b203f90527c04bcf98,Pretty in Pink Boutique,children's_clothing_store,,"[""https://www.etsy.com/shop/prettypinkboutique12?ref=si_shop""]","[""https://www.facebook.com/247946468664230""]","[""+14178608971""]",,609 E Wells St,Ash Grove,65604-9087,MO,US
08f26538c2c10b85035eea4e5c27273c,Village Boutique,women's_clothing_store,,"[""http://www.villageboutiquebolivar.com/""]","[""https://www.facebook.com/177524198962735""]","[""+14177777109""]",,860 E San Martin St,Bolivar,65613-2897,MO,US
08f26538c649e10403d4b0e0e57d1e72,Country Lace Boutique,women's_clothing_store,,"[""https://shopcountrylace417.com/""]","[""https://www.facebook.com/350414221809425""]","[""+14173265721""]",,809 S Albany Ave,Bolivar,65613-2405,MO,US
08f2653af189d150036325f2e42a26fc,513 Purses LLC,clothing_store,,"[""http://513purses.com""]","[""https://www.facebook.com/1504256449812586""]","[""+14172343825""]",,120 S Madison St,Strafford,65757-9408,MO,US
08f2653a1042c8c8039142d31730e7dc,Monroe House,women's_clothing_store,,"[""https://monroehouseboutique.com/""]","[""https://www.facebook.com/533260726843644""]","[""+14175672003""]",,67 S Main St,Fair Grove,65648-8597,MO,US
08f2653a759897850336eaafafdd9473,The Wild Honey Boutique,children's_clothing_store,,"[""http://thewildhoneyboutique.com""]","[""https://www.facebook.com/105885805212126""]","[""+14174688824""]",,1329 Spur Dr,Marshfield,65706-2311,MO,US
08f2653a7583065203921b6b00f40a8b,Southern Charmed Boutique,women's_clothing_store,,"[""http://www.southerncharmedboutique.com/""]","[""https://www.facebook.com/1596506223919010""]",,,1309 Spur Dr,Marshfield,65706-2311,MO,US
08f2653a660834560335acd30ba94a14,"Open the Dior - Marshfield, MO",women's_clothing_store,,"[""http://openthedior.com""]","[""https://www.facebook.com/486781465029821""]","[""+13146511141""]",,203 S Clay St,Marshfield,65706-2112,MO,US
08f2654a4418404c03a9ee805a0ce7d3,Coach Light,women's_clothing_store,,"[""http://www.coachlightgifts.com""]","[""https://www.facebook.com/105574307200""]","[""+16602632708""]",,500 W Reed St,Moberly,65270-1510,MO,US
08f2654a44112a8603dfb8d37375eea9,Encore Moberly,women's_clothing_store,,"[""http://www.encoremoberly.com""]","[""https://www.facebook.com/715224311854215""]","[""+16602632322""]",,317 W Reed St,Moberly,65270-1558,MO,US
08f264484a851a1b0350cb8804452173,Grey House Goods,women's_clothing_store,,"[""http://shopghg.com""]","[""https://www.facebook.com/281845575672737""]","[""+12174546213""]",,113 N Chestnut St,Assumption,62510-1003,IL,US
08f26448f375d701035f073d5ea56d11,Glik's,women's_clothing_store,,"[""https://www.gliks.com/?utm_source=yext&utm_medium=storelistings&utm_campaign=mainlink""]","[""https://www.facebook.com/236422316722366""]","[""+12177774545""]","{""names"":{""common"":[{""value"":""Glik's"",""language"":""local""}],""official"":null,""alternate"":null,""short"":null},""wikidata"":null}",107 E Bidwell St,Taylorville,62568-1359,IL,US
08f265d936162296034c3e04bab8bfc2,Shaunti Williams - Independent Matilda Jane Trunk Keeper #905,clothing_store,,"[""http://matildajaneclothing.com/shauntiwilliams""]","[""https://www.facebook.com/741145095984228""]","[""+15734212408""]",,14572 County Road 624,Dexter,63841-8789,MO,US
08f264206c16bd23030d8b1a06fe71ca,Lou Lou?s,women's_clothing_store,,"[""http://shopwithloulous.com""]","[""https://www.facebook.com/115578992339517""]","[""+15732108732""]",,212 E High St,Potosi,63664-1909,MO,US
08f2643db14367b503463b7d454457c6,Ophelia Farmington,women's_clothing_store,,"[""http://www.opheliaonline.com""]","[""https://www.facebook.com/203081946429389""]","[""+15739155141""]",,20 W Columbia St,Farmington,63640-1717,MO,US
08f265da2d5aadb30352c1a476fab062,Braggadocio Mercantile,clothing_store,,"[""http://braggadociomercantile.com/""]","[""https://www.facebook.com/769570353072878""]","[""+15733332603""]",,2812 State Highway Z,Steele,63877-8256,MO,US
08f264e499c89626032f619fe8319dde,Burlap & Lace,women's_clothing_store,,"[""https://m.facebook.com/groups/969499809748242""]","[""https://www.facebook.com/353666444775611""]","[""+15733799086""]",,120 E Main St,Portageville,63873-1612,MO,US
08f264e0f4a21543033e0b3490f5ee5e,Joann's,women's_clothing_store,,"[""http://www.joannspromandpageantgowns.com""]","[""https://www.facebook.com/110975045646491""]","[""+17314791771""]",,212 S 1st St,Union City,38261-3804,TN,US
08f2643359cc6adb03aee4494ebd6705,Leigh Anne's Loft,children's_clothing_store,,"[""http://www.leighannesline.com""]","[""https://www.facebook.com/227959424065246""]","[""+15734757272""]",,118 E Center St,Sikeston,63801-4108,MO,US
08f2643b8d06b7ac03b275604b6958bf,francesca's,women's_clothing_store,,"[""https://www.francescas.com/""]","[""https://www.facebook.com/767924746677649""]","[""+15733812288""]","{""names"":{""common"":[{""value"":""francesca's"",""language"":""local""}],""official"":null,""alternate"":null,""short"":null},""wikidata"":null}",3049 William St,Cape Girardeau,63703-6393,MO,US
08f2643a34202b8503862181e83b8c1c,1998 Boutique,women's_clothing_store,,"[""https://www.shop1998boutique.com""]","[""https://www.facebook.com/111405534880769""]","[""+15738379283""]",,109 N Main St,Cape Girardeau,63701-7308,MO,US
08f264066040d72303c5c696645bea90,The Jade Leopard Boutique,women's_clothing_store,,"[""http://thejadeleopardboutique.com/""]","[""https://www.facebook.com/423160941120788""]","[""+16188262600""]",,1218 Swanwick St,Chester,62233-1666,IL,US
08f26414e31b0b9003eaa6e7e8ce257b,doll baby boutique,children's_clothing_store,,"[""http://dollbabyboutique.com/""]","[""https://www.facebook.com/550770195290121""]","[""+16185340836""]",,113 Lafayette St,Anna,62906-1543,IL,US
08f26411b6cd29150341392db6aa7dc7,"Whimsy, A Children's Clothing Store",children's_clothing_store,,"[""http://www.whimsychildrensclothing.com""]","[""https://www.facebook.com/391439584377541""]","[""+16189260219""]",,1400 W Main St,Marion,62959-1142,IL,US
08f2641ceba50b5003660568892e2c27,Factory Connection,clothing_store,,"[""http://www.factory-connection.com""]","[""https://www.facebook.com/178321503046681""]","[""+16186942417""]","{""names"":{""common"":[{""value"":""Factory Connection"",""language"":""local""}],""official"":null,""alternate"":null,""short"":null},""wikidata"":null}",1301 Enterprise Way,Marion,62959-4423,IL,US
08f26e53668da80303e6791e03129d28,The Pink Suitcase,women's_clothing_store,,"[""http://www.shoppinksuitcase.com""]","[""https://www.facebook.com/132490740138863""]","[""+17852421884""]",,312 S Main St,Ottawa,66067-2332,KS,US
08f2652bb31025a60316d5854b80be09,The Piper Company,clothing_store,,"[""http://www.kbsells.com/agents/yunger""]","[""https://www.facebook.com/323898100155""]","[""+16604244318""]",,222 N Main St,South West City,64863-9460,MO,US
08f26566cbc48884032e5f40a5bf3042,Trendz,women's_clothing_store,,"[""http://thecornerhousefurnitureandboutique.com""]","[""https://www.facebook.com/83074919621""]","[""+19134848893""]",,,Overland Park,,KS,US
08f26529a105b4a603ce5e63ac81c9b9,This Little Heart of Mine Boutique,children's_clothing_store,,"[""https://thislittleheartofmine.co""]","[""https://www.facebook.com/102823621415779""]","[""+18166946942""]",,213 N Main St,Peculiar,64078-2522,MO,US
08f26529059368c003f7cfe407f2bc66,The Girls Boutique,women's_clothing_store,,"[""http://thegirlsboutique.com/""]","[""https://www.facebook.com/1561043820791835""]","[""+18167380851""]",,101 W Wall St,Harrisonville,64701-2355,MO,US
08f26e5bad9ab14b0394d30389fa3cfc,Nomads,women's_clothing_store,,"[""http://www.shopnomadsonline.com/""]","[""https://www.facebook.com/1279611642059826""]","[""+17858560240""]",,725 Lawrence Ave,Lawrence,66049-4522,KS,US
08f26e5a34172b1e03b336f319309c40,Maurices,women's_clothing_store,,"[""https://locations.maurices.com/us/ks/lawrence/3226-iowa-street""]","[""https://www.facebook.com/156790038073579""]","[""+17858410334""]","{""names"":{""common"":[{""value"":""maurices"",""language"":""local""}],""official"":null,""alternate"":null,""short"":null},""wikidata"":null}",3226 Iowa St,Lawrence,66046-5204,KS,US
08f26e5b1e66679503b4a62dca9621b3,Sweet Tea and Caviar Boutique,children's_clothing_store,,"[""http://www.sweetteacaviar.com""]","[""https://www.facebook.com/578282468897935""]","[""+14092274029""]",,700 N Main St,Lumberton,77657-7355,TX,US
08f26e5b1c4ca06803e7c9f291900e0d,Spectator's,clothing_store,,"[""http://spectators.com/""]","[""https://www.facebook.com/111383935325""]","[""+17858431771""]",,710 Massachusetts St,Lawrence,66044-2344,KS,US
08f2656781684cb4039f78e34423f2b2,Urban Sunflower,women's_clothing_store,,"[""http://www.shopurbansunflower.com""]","[""https://www.facebook.com/313207055810061""]","[""+19135158686""]",,11176 S Lone Elm Rd,Olathe,66061-9434,KS,US
08f2656621cd2dae03d745eee1fc71f5,Frankie & Jules Boutique,women's_clothing_store,,"[""http://www.frankieandjules.com/""]","[""https://www.facebook.com/154548223713""]","[""+19135441700""]",,4866 W 135th St,Leawood,66224-8715,KS,US
08f2656624ad928303b1f820d0fb052c,Lilly Pulitzer,clothing_store,,"[""https://www.lillypulitzer.com/store/details/?storeid=80228-279&city=overland-park&utm_source=fb&utm_medium=yext""]","[""https://www.facebook.com/817219415096547""]","[""+19134511445""]","{""names"":{""common"":[{""value"":""Lilly Pulitzer"",""language"":""local""}],""official"":null,""alternate"":null,""short"":null},""wikidata"":null}",4823 W 119th St,Overland Park,66209-1560,KS,US
08f265662406c0d40366423ccc835c9d,Altar'd State,women's_clothing_store,,"[""https://www.altardstate.com/""]","[""https://www.facebook.com/199242590565224""]","[""+19134996060""]","{""names"":{""common"":[{""value"":""Altar'd State"",""language"":""local""}],""official"":null,""alternate"":null,""short"":null},""wikidata"":null}",5238 W 119th St,Leawood,66209-1529,KS,US
08f265671e66696203ce1f1bd967b79b,francesca's,women's_clothing_store,,"[""https://www.francescas.com/""]","[""https://www.facebook.com/119859278070904""]","[""+19134282742""]","{""names"":{""common"":[{""value"":""francesca's"",""language"":""local""}],""official"":null,""alternate"":null,""short"":null},""wikidata"":null}",11445 W 95th St,Overland Park,66214-1827,KS,US
08f265671e75d6dd03f41bf347da2cce,B. Royal Boutique,women's_clothing_store,,"[""https://www.broyalboutique.com/""]",,"[""""]",,11579 W 95th St,Overland Park,66214,KS,US
08f2656703dad6110366a392e342b41b,ensemble,women's_clothing_store,,"[""http://www.ensemblekc.com""]","[""https://www.facebook.com/964192770352657""]","[""+19132838132""]",,7941 Santa Fe Dr,Overland Park,66204-3644,KS,US
08f265670ea46d9a0312ae065a059d18,Story Boutique,women's_clothing_store,,"[""http://www.storyb.org""]","[""https://www.facebook.com/112969182098197""]","[""+19136422292""]",,3704 W 95th St,Leawood,66206-2037,KS,US
08f265672c4d56d103929e89bf67f207,Lauren Alexandra,children's_clothing_store,,"[""http://www.laurenalexandraworld.com""]","[""https://www.facebook.com/256371158086""]","[""+18168222539""]",,322 W 63rd St,Kansas City,64113-1604,MO,US
08f265672c4ead030326c97e87483ba3,COCO brookside - now LADYCO at 314 W 63rd St KCMO 64113,women's_clothing_store,,"[""http://www.ladybyekc.com/""]","[""https://www.facebook.com/109458569857542""]","[""+18164425923""]",,314 W 63rd St,Kansas City,64113-1604,MO,US
08f265672c720cb1034e95b020206a29,Shopgirls Kansas City,women's_clothing_store,,"[""https://www.shopgirls.com/""]","[""https://www.facebook.com/150720135005822""]","[""+18164469316""]",,6215 Oak St,Kansas City,64113-2241,MO,US
08f2656742c4a30903b370af126d99c0,Chosen,women's_clothing_store,,"[""https://rendedheart.org/chosen/""]","[""https://www.facebook.com/100850835760973""]","[""+18163434558""]",,1014 Main St,Grandview,64030-2456,MO,US
08f265676951160503f7c8dcf8b28465,The Girls Spot,women's_clothing_store,,"[""http://shopwiththegirls.com/""]","[""https://www.facebook.com/317447331700303""]","[""+19133266646""]",,,Lees Summit,,MO,US
08f265639069e1210371b929db1878b0,Ellis Clothing Company,women's_clothing_store,,"[""http://www.ellisclothingco.com""]","[""https://www.facebook.com/1763355953910265""]","[""+18164428549""]",,950 NW Blue Pkwy,Lee's Summit,64086-5718,MO,US
08f265639321cac503a7f4e9f10620cc,Inspired Style Boutique,women's_clothing_store,,"[""http://inspiredstyleboutique.com""]","[""https://www.facebook.com/72336657171""]","[""+18166002009""]",,622 SW 3rd St,Lee's Summit,64063-2213,MO,US
08f265639ed5d0d60361e4df634e1854,Elle & Em,women's_clothing_store,,"[""http://www.elleandemboutique.com""]","[""https://www.facebook.com/130642664365900""]","[""+18169456300""]",,9 SE 3rd St,Lee's Summit,64063-2322,MO,US
08f265645e6890d20389df72dab89b78,Woodland & Willow,women's_clothing_store,,"[""http://www.woodlandandwillow.com""]","[""https://www.facebook.com/902378606538046""]","[""+19137455673""]",,128 Oak St,Bonner Springs,66012-1046,KS,US
08f26564712ca25003384198fd89d853,Windsor Fashions,women's_clothing_store,,"[""https://www.windsorstore.com/?utm_source=fb_place&utm_medium=retail""]","[""https://www.facebook.com/507978049614915""]","[""+18884946376""]",,1843 Village West Pkwy,Kansas City,66111-1880,KS,US
08f26564445b60e6038049db8a789650,Kate Spade Outlet,clothing_store,,"[""http://www.katespade.com""]","[""https://www.facebook.com/152723827928092""]","[""+19133280704""]","{""names"":{""common"":[{""value"":""kate spade new york"",""language"":""local""}],""official"":null,""alternate"":null,""short"":null},""wikidata"":null}",1843 Village West Pkwy,Kansas City,66111-1880,KS,US
08f26564445b1d6503490c5ebd5b02e8,francesca's,women's_clothing_store,,"[""https://www.francescas.com/""]","[""https://www.facebook.com/1735913579985066""]","[""+19134282722""]","{""names"":{""common"":[{""value"":""francesca's"",""language"":""local""}],""official"":null,""alternate"":null,""short"":null},""wikidata"":null}",1847 Village West Pkwy,Kansas City,66111-1880,KS,US
08f26564445a5c7603977394a9d1d73f,Maurices,women's_clothing_store,,"[""https://locations.maurices.com/us/ks/kansas-city/1837-village-west-parkway""]","[""https://www.facebook.com/1236489966375744""]","[""+19137885599""]","{""names"":{""common"":[{""value"":""maurices"",""language"":""local""}],""official"":null,""alternate"":null,""short"":null},""wikidata"":null}",1837 Village West Pkwy,Kansas City,66111-1880,KS,US
08f265646c4d8a83036dc796c573e681,Cirilla's,women's_clothing_store,,"[""http://www.cirillas.com""]","[""https://www.facebook.com/206513846038553""]","[""+19132993535""]",,7258 State Ave,Kansas City,66112-3003,KS,US
08f2656721cb401603a6917cbddcd2ec,Asiatica,clothing_store,,"[""http://www.asiaticakc.com""]","[""https://www.facebook.com/139556746093659""]","[""+19138310831""]",,4824 Rainbow Blvd,Westwood,66205-1941,KS,US
08f2656720a5ad0c0333831d1409b3ae,ULAH,clothing_store,,"[""https://www.ulahkc.com/""]","[""https://www.facebook.com/192857564432822""]","[""+19137778734""]",,4707 Rainbow Blvd,Westwood,66205-1832,KS,US
08f26567219540d80378a7dbdb6f22ff,Hemline,women's_clothing_store,,"[""http://www.shophemline.com/""]",,"[""8167530150""]",,610 W 48th St,Kansas City,64112,MO,US
08f265672196655203ac14a4bc824e02,Altar'd State,women's_clothing_store,,"[""https://www.altardstate.com/""]","[""https://www.facebook.com/261200457830701""]","[""+18168656100""]","{""names"":{""common"":[{""value"":""Altar'd State"",""language"":""local""}],""official"":null,""alternate"":null,""short"":null},""wikidata"":null}",436 Nichols Rd,Kansas City,64112-2005,MO,US
08f265672cd2a62c0309df1786fb2c7f,Peruvian Connection,clothing_store,,"[""http://www.peruvianconnection.com/""]","[""https://www.facebook.com/1919219941707523""]","[""+18169940343""]","{""names"":{""common"":[{""value"":""Peruvian Connection"",""language"":""local""}],""official"":null,""alternate"":null,""short"":null},""wikidata"":null}",335 E 55th St,Kansas City,64113-1222,MO,US
08f2656721965c180377c791163a3682,francesca's,women's_clothing_store,,"[""https://www.francescas.com/""]","[""https://www.facebook.com/114228755303792""]","[""+18163324989""]","{""names"":{""common"":[{""value"":""francesca's"",""language"":""local""}],""official"":null,""alternate"":null,""short"":null},""wikidata"":null}",4724 Broadway,Kansas City,64112-1907,MO,US
08f26567219658a803fcdf7d8840fa0a,Bebe,fashion_accessories_store,,"[""""]",,"[""8165312777""]",,4710 Broadway,Kansas City,64112,MO,US
08f26560d2154552037c20dc2618d0bb,Blacque Onyx Apparel,women's_clothing_store,,"[""http://www.b-onyx.com""]","[""https://www.facebook.com/1432110116815013""]","[""+18163253369""]",,4731 Troost Ave,Kansas City,64110-1727,MO,US
08f2656720b2e2aa0313abed770ea6d7,Cirilla's,women's_clothing_store,,"[""http://www.cirillas.com""]","[""https://www.facebook.com/168395619837976""]","[""+19138311775""]",,4301 Rainbow Blvd,Kansas City,66103-3424,KS,US
08f26567256948550357827ca4f5ade4,Finefolk,clothing_store,,"[""http://www.finefolk.com""]","[""https://www.facebook.com/173279786024445""]","[""+18162838144""]",,4504 State Line Rd,Kansas City,66103-3541,KS,US
08f2656725cceb5a03d031fb2c382044,Donna's Dress Shop,women's_clothing_store,,"[""http://www.donnasdressshop.com""]","[""https://www.facebook.com/223185163469""]","[""+18169310022""]",,1410 W 39th St,Kansas City,64111-4428,MO,US
08f2656725a9c83303bb26fdd6e919c3,Clothz Minded,women's_clothing_store,,"[""http://clothzminded.com""]","[""https://www.facebook.com/202958869721722""]","[""+18165312655""]",,4115 Pennsylvania Ave,Kansas City,64111-3002,MO,US
08f265608971d2c0036642221e110447,We are sincerely yours,clothing_store,,"[""http://www.wearesincerelyyours.com/""]","[""https://www.facebook.com/516527258542046""]","[""+18163046507""]",,2711 Troost Ave,Kansas City,64109-1252,MO,US
08f2656088700d8203ce78f25354a725,MADI Apparel,women's_clothing_store,,"[""http://www.madiapparel.com""]","[""https://www.facebook.com/1933726920267950""]","[""+18168920822""]","{""names"":{""common"":[{""value"":""MADI Apparel"",""language"":""local""}],""official"":null,""alternate"":null,""short"":null},""wikidata"":null}",1659 Summit St,Kansas City,64108-1139,MO,US
08f265608822158903b3b60c3e1fa00d,Guevel,clothing_store,,"[""http://www.guevel.co""]","[""https://www.facebook.com/1292949857473794""]","[""+18164926186""]",,1828 Grand Blvd,Kansas City,64108-1816,MO,US
08f265608881e6680391935eec320a63,NSOS Showroom,women's_clothing_store,,"[""https://www.nsos-showroom.com""]","[""https://www.facebook.com/103233381323923""]","[""+18166731070""]",,104 W 9th St,Kansas City,64105-1713,MO,US
08f2656088910524033d29e8034d7c85,Rock Candy Boutique,clothing_store,,"[""http://rockcandyvintagekc.com/""]","[""https://www.facebook.com/184397964739""]","[""+18169317625""]",,115 W 5th St,Kansas City,64105-1232,MO,US
08f265608c649bb3031a3b095d030b6a,Kate KC,women's_clothing_store,,"[""https://shopkatekc.com""]","[""https://www.facebook.com/430338294218973""]","[""+18169770108""]",,412 Delaware St,Kansas City,64105-1218,MO,US
08f2656088921b9203201ed7e51ee219,Houndstooth,clothing_store,,"[""http://houndstoothkc.com""]","[""https://www.facebook.com/1445529599023867""]","[""+18162161425""]",,507 Walnut St,Kansas City,64106-1210,MO,US
08f265650eaf149303f213c016fd9570,K N D Magic,clothing_store,,"[""http://www.kndmagic.com""]","[""https://www.facebook.com/113344010385837""]","[""+19132979811""]",,425 Delaware St,Leavenworth,66048-2732,KS,US
08f265650ea46c82032db7ad8afc38cd,Season 7 Boutique | Curated Women's Boutique,women's_clothing_store,,"[""http://shopseason7.com""]","[""https://www.facebook.com/113492790029657""]","[""+19132404683""]",,207 Delaware St,Leavenworth,66048-2823,KS,US
08f26560b620585403426a980f00cf42,Urban Trends,clothing_store,,"[""https://urbantrendskc.com""]","[""https://www.facebook.com/137037300263053""]","[""+18165693420""]",,6264 Lewis Dr,Parkville,64152-3698,MO,US
08f26560b630bb62038b64cbe41d2225,twill,clothing_store,,"[""http://twillboutique.com""]","[""https://www.facebook.com/268136799953638""]","[""+18165842746""]",,6325 Lewis St,Parkville,64152-3699,MO,US
08f265608998895b03cff0601ed63638,IMKC Clothing Store - 18th & Vine District,clothing_store,,"[""https://yesimkc.com""]","[""https://www.facebook.com/229245114296989""]","[""+18164428662""]",,1809 Vine St,Kansas City,64108-1625,MO,US
08f26560f52e956203a1dc57139d2bb2,Moonlight Adult Boutique,clothing_store,,"[""""]",,"[""8162145958""]",,8801 E Truman Rd,Kansas City,64126,MO,US
08f26560e568dda50388143a5038f2cf,Black Lemon Boutique,women's_clothing_store,,"[""http://www.blacklemonboutique.com""]","[""https://www.facebook.com/1520409944729944""]","[""+18162870716""]",,112 N Liberty St,Independence,64050-2801,MO,US
08f26560edac982203691c2a48dd5dbd,The Classy Way Plus Size Boutique,women's_clothing_store,,"[""http://www.bohme.com""]","[""https://www.facebook.com/374869599918984""]","[""+18163135741""]",,18801 E 39th St S,Independence,64057-1710,MO,US
08f265602049546b0343f8d91d8c1901,Mama and Me Children's Boutique,children's_clothing_store,,"[""http://mamamechildrensboutique.com/""]","[""https://www.facebook.com/107155947349976""]","[""+18167364012""]",,17 E Kansas St,Liberty,64068-2312,MO,US
08f2656020494565032ece20c2f5e851,More Excuses Boutique,women's_clothing_store,,"[""http://www.moreexcusesboutique.com/""]","[""https://www.facebook.com/225519954166905""]","[""+18167813832""]",,2 N Main St,Liberty,64068-1638,MO,US
08f2656020494c6e03ffa04e97278b9b,Catfish + Tater Boutique,clothing_store,,"[""http://catfishandtater.com""]","[""https://www.facebook.com/118040436065""]","[""+18164153677""]",,4 N Main St,Liberty,64068-1638,MO,US
08f26568dd25679e039171ff9ecc7ecb,Style By Ry,women's_clothing_store,,"[""http://www.shopstylebyry.com""]","[""https://www.facebook.com/404166863343913""]","[""+18168485031""]",,116 E Broadway St,Excelsior Springs,64024-2529,MO,US
08f2651d8b131818030d95307fa483bf,Peacock Lane,women's_clothing_store,,"[""http://www.peacocklaneboutique.com""]","[""https://www.facebook.com/716205435128357""]","[""+15736931236""]",,1044 Main St,Osage Beach,65065-3037,MO,US
08f2651d914a2532030514d4a092ceaf,"Under the Sun, Sunrise Beach, MO, Lake of the Ozarks",clothing_store,,"[""http://www.underthesunsunrisebeach.com""]","[""https://www.facebook.com/104348426278557""]","[""+15733742001""]",,8 Sunset Hills Ct,Sunrise Beach,65079-6676,MO,US
08f2655236a43c1503a926ea189bfb12,Osage Chic Boutique,women's_clothing_store,,"[""http://www.osagechic.com""]","[""https://www.facebook.com/2188637774550961""]",,,1214 E Lee St,Linn,65051-9793,MO,US
08f2655ccb71bcf0034564944a5a02b3,Rosebuds Baby & Kids Boutique,children's_clothing_store,,"[""http://www.rosebudsbaby.com""]","[""https://www.facebook.com/111795380238903""]","[""+15738157673""]",,503 E Nifong Blvd,Columbia,65201-3782,MO,US
08f2655cc37b649c03305e9706ad1bd3,francesca's,women's_clothing_store,,"[""https://www.francescas.com/""]","[""https://www.facebook.com/284295861730716""]","[""+15737336633""]","{""names"":{""common"":[{""value"":""francesca's"",""language"":""local""}],""official"":null,""alternate"":null,""short"":null},""wikidata"":null}",2300 Bernadette Dr,Columbia,65203-0098,MO,US
08f2655ccc69595203d7983ded9e6b3b,Muse Clothing,clothing_store,,"[""http://www.musecomo.com""]","[""https://www.facebook.com/480269795342741""]","[""+15732220687""]",,22 S 9th St,Columbia,65201-4814,MO,US
08f2655d44c2532c03abe8389faa2bb1,SH?k Boutique,women's_clothing_store,,"[""http://www.shopshekmo.com""]","[""https://www.facebook.com/759713900746075""]","[""+15736820448""]",,125 N Allen St,Centralia,65240-1301,MO,US
08f2642c59591c090385f86a85d37d01,Factory Connection,clothing_store,,"[""http://www.factory-connection.com""]","[""https://www.facebook.com/1058269634351172""]","[""+15734683810""]","{""names"":{""common"":[{""value"":""Factory Connection"",""language"":""local""}],""official"":null,""alternate"":null,""short"":null},""wikidata"":null}",312 Park Ridge Rd,Sullivan,63080-3302,MO,US
08f26466cc99356203f2ee8d3be70e5d,Envy Washmo,women's_clothing_store,,"[""http://www.envywashmo.com""]","[""https://www.facebook.com/1427987647510989""]","[""+16364321342""]",,106 Elm St,Washington,63090-2113,MO,US
08f2642b25d5c6db032bb8a14617efb3,The Walk-In Closet Resale Boutique,women's_clothing_store,,"[""http://www.walkinclosetfestus.com""]","[""https://www.facebook.com/1146072122085562""]","[""+16366381412""]",,1300 Veterans Blvd,Festus,63028-2343,MO,US
08f26406b4434c6e0380720753273a60,One Eleven Olive Boutique,women's_clothing_store,,"[""http://www.oneelevenolive.com""]","[""https://www.facebook.com/108524221528942""]",,,679 Highway 61,Bloomsdale,63627-9112,MO,US
08f26429298d2d3003481231377764ff,"Paws and Boots, and a Guy",clothing_store,,"[""https://www.pawsandboots-eureka.com/""]","[""https://www.facebook.com/111599651389961""]","[""+16365493500""]",,126 S Central Ave,Eureka,63025-2001,MO,US
08f264292912425b033b680023efb814,Lillie James Boutique + Gifts,women's_clothing_store,,"[""http://www.lilliejamesboutique.com/""]","[""https://www.facebook.com/110832195254155""]","[""+16365493396""]",,125 S Central Ave,Eureka,63025-2002,MO,US
08f26462a81985580314d4e398306896,Madison's Dancewear,clothing_store,,"[""http://www.madisonsdance.com/""]","[""https://www.facebook.com/844208878959047""]","[""+16365375456""]",,161 Long Rd,Chesterfield,63005-1223,MO,US
08f26462eb4eda6303170edbdffead59,Porte44 Boutique,women's_clothing_store,,"[""http://porte44.com""]","[""https://www.facebook.com/237447446788863""]","[""+16363461265""]",,2426 Alcarol Dr,Fenton,63026-2225,MO,US
08f26405a45322ed036c608e1bb4bb0a,Nicole Rae Boutique,fashion_accessories_store,,"[""http://www.nicoleraeboutique.com/""]",,"[""3142709191""]",,117 Concord Plaza Shopping Ctr,Saint Louis,63128,MO,US
08f264625139c4b4033d5992625c2bca,Mod On Trend,women's_clothing_store,,"[""http://www.modontrend.com/""]","[""https://www.facebook.com/805520382961597""]","[""+13142889884""]","{""names"":{""common"":[{""value"":""MOD On TREND"",""language"":""local""}],""official"":null,""alternate"":null,""short"":null},""wikidata"":null}",110 N Clay Ave,Kirkwood,63122-4205,MO,US
08f26462513b30d9036c6b2c01ca8851,Lass & Laddie,children's_clothing_store,,"[""http://www.lassandladdie.com""]","[""https://www.facebook.com/1533504436919950""]","[""+13148221886""]",,161 W Jefferson Ave,Kirkwood,63122,MO,US
08f2646251ad9586030d662345dac138,Weekend At Ashley's,women's_clothing_store,,"[""http://weekendatashleys.commentsold.com/store""]","[""https://www.facebook.com/216045612574588""]","[""+13144522299""]",,323 E Jefferson Ave,Kirkwood,63122-4540,MO,US
08f26462438f445a03712d300fb1c0b1,Descendant,women's_clothing_store,,"[""http://www.shopdescendant.com""]","[""https://www.facebook.com/109090484019148""]","[""+16189243775""]","{""names"":{""common"":[{""value"":""Descendant - Minimalist Style Boutique"",""language"":""local""}],""official"":null,""alternate"":null,""short"":null},""wikidata"":null}",8715 Big Bend Blvd,Webster Groves,63119-3729,MO,US
08f26462e6ab30dd03baaeb601520587,francesca's,clothing_store,,"[""https://www.francescas.com/""]","[""https://www.facebook.com/431889603611836""]","[""+16364935227""]","{""names"":{""common"":[{""value"":""francesca's"",""language"":""local""}],""official"":null,""alternate"":null,""short"":null},""wikidata"":null}",1196 Town and Country Crossing Dr,Town and Country,63017-0607,MO,US
08f26462e6ab30f603c7f695641afe21,Mod On Trend,women's_clothing_store,,"[""http://modontrend.com""]","[""https://www.facebook.com/602232166917686""]","[""+16367956853""]","{""names"":{""common"":[{""value"":""MOD On TREND"",""language"":""local""}],""official"":null,""alternate"":null,""short"":null},""wikidata"":null}",1192 Town and Country Crossing Dr,Town and Country,63017-0607,MO,US
08f26462e6b8892003650707dbfc3934,Klutch,women's_clothing_store,,"[""http://www.klutchstyle.com""]","[""https://www.facebook.com/163516194653""]","[""+16362206110""]",,1164 Town and Country Crossing Dr,Chesterfield,63017-0607,MO,US
08f26462e6a158e503885d273ce50a8c,Laurie Solet Boutique,women's_clothing_store,,"[""https://www.lauriesolet.com/""]","[""https://www.facebook.com/93354105329""]","[""+16365274139""]",,1176 Town and Country Crossing Dr,Town and Country,63017-0607,MO,US
08f264625286bb2c03849495f3a53a2f,Windsor Fashions,women's_clothing_store,,"[""https://www.windsorstore.com/pages/mo-des-peres-des-peres-west-county-center?utm_source=fb_place&utm_medium=retail""]","[""https://www.facebook.com/258185071459121""]","[""+13145617400""]","{""names"":{""common"":[{""value"":""Windsor Fashions"",""language"":""local""}],""official"":null,""alternate"":null,""short"":null},""wikidata"":null}",80 West County Center Dr,St Louis,63131-3701,MO,US
08f2646252b3639203802ff054634edf,francesca's,women's_clothing_store,,"[""https://www.francescas.com/""]","[""https://www.facebook.com/139341186107462""]","[""+13142387003""]","{""names"":{""common"":[{""value"":""francesca's"",""language"":""local""}],""official"":null,""alternate"":null,""short"":null},""wikidata"":null}",80 W County Ctr,Des Peres,63131-3701,MO,US
08f264625049a8e203f246352a03f901,Imagine That,clothing_store,,"[""https://imaginethatboutique.com""]","[""https://www.facebook.com/940561202790197""]","[""+15732702234""]",,103 W County Ctr,Des Peres,63131-3725,MO,US
08f26462504814c4034b6358367bd670,Camille La Vie,clothing_store,,"[""https://camillelavie.com/locations/west-county-center-dress-shop""]",,"[""3149465001""]",,"8 W County Center, Suite Ste 1020",Des Peres,63131,MO,US
08f2646240728aad0362548b3c014c34,Never Enough Boutique,women's_clothing_store,,"[""http://www.neverenoughstl.com""]","[""https://www.facebook.com/111125812278458""]","[""+13145785203""]",,51 N Gore Ave,Webster Groves,63119-2330,MO,US
08f264627355e31303d8855e14ceb5a7,UNTUCKit,clothing_store,,"[""https://www.untuckit.com/blogs/store-locations/st-louis?utm_source=yext""]","[""https://www.facebook.com/379203522513988""]","[""+13147389886""]","{""names"":{""common"":[{""value"":""UNTUCKit"",""language"":""local""}],""official"":null,""alternate"":null,""short"":null},""wikidata"":null}",1701 S Lindbergh Blvd,St Louis,63131-3506,MO,US
08f26405aca06d6303ed2d3852228b4c,TCL West Boutique,clothing_store,,"[""http://www.tclwest.com""]","[""https://www.facebook.com/668215789979975""]","[""+16362838282""]",,126 S Central Ave,Eureka,63025-2001,MO,US
08f26405aca2a9b00362031776fb43d8,Remy + Rose Boutique,women's_clothing_store,,"[""http://www.remyroseboutique.com""]","[""https://www.facebook.com/602380280192270""]","[""+13142937546""]",,5678 Telegraph Rd,St Louis,63129-4243,MO,US
08f26405a4898230032477ca6cdbfbff,The Tailor Boutique LTD,clothing_store,,"[""http://tailorsboutiqueltd.com""]","[""https://www.facebook.com/317443731790061""]","[""+13148495995""]",,9951 Lin Ferry Dr,St Louis,63123-6913,MO,US
08f264626275db8403bb2fc99d87253d,AKIRA,clothing_store,,"[""http://www.shopakira.com""]","[""https://www.facebook.com/2235578933419592""]","[""+13147500052""]","{""names"":{""common"":[{""value"":""AKIRA"",""language"":""local""}],""official"":null,""alternate"":null,""short"":null},""wikidata"":null}",1476 St Louis Galleria,Richmond Heights,63117-1109,MO,US
08f26462629338d9032baf855db36261,Byrd Style Lounge,women's_clothing_store,,"[""http://byrdstyle.com/""]",,"[""3147210766""]",,8117 Maryland Ave,Clayton,63105,MO,US
08f264626550aa0003612633a6fc1fee,Maine Chic Clothing,clothing_store,,"[""https://www.maine-chicclothing.com""]","[""https://www.facebook.com/688155871621140""]","[""+13148750280""]",,6360 Delmar Blvd,St Louis,63130-4719,MO,US
08f2646265576a9103f26aa48334a938,Devil City by Deborah Fink,clothing_store,,"[""http://www.devilcity.com""]","[""https://www.facebook.com/157558464311154""]","[""+13148638080""]",,6267 Delmar Blvd,University City,63130-4716,MO,US
08f2646265168b2c03eadd4d45ae6458,Streetstylez Boutique,clothing_store,,"[""""]",,"[""3146699060""]",,5854 Delmar Blvd,Saint Louis,63112,MO,US
08f2640c9325a582031832b9c79be571,Mix & Match,clothing_store,,"[""http://stlmixandmatch.com""]","[""https://www.facebook.com/882780105112266""]",,,5400 Devonshire Ave,St Louis,63109-2841,MO,US
08f2640c9625aab003222d61bdc44ed3,East ? West,men's_clothing_store,,"[""http://www.eastandweststl.com""]","[""https://www.facebook.com/213445692022907""]","[""+13145539288""]",,387 N Euclid Ave,St Louis,63108-1245,MO,US
08f2640c8207238803e7fcce7b43d7f4,DNA,clothing_store,,"[""http://dnastl.com""]","[""https://www.facebook.com/359758947420915""]","[""+13146699852""]",,1311 Washington Ave,St Louis,63103-1918,MO,US
08f2640cc697678003cd27150e396f5a,Don Rodgers Ltd,clothing_store,,"[""https://donrodgersltd.com/""]","[""https://www.facebook.com/1459671904263269""]","[""+16183982421""]",,6727 W Main St,Belleville,62223-3027,IL,US
08f264639aae555803b6dc4320cbcc59,MOD ON TREND,clothing_store,,"[""https://modontrend.com/""]",,"[""6366281759""]",,2975 Highway K,O Fallon,63368,MO,US
08f264639ec1aa0a03f0ed50a766d523,Sleepy Panda Pieces,children's_clothing_store,,"[""https://www.sleepypandapieces.com/""]","[""https://www.facebook.com/208163012970234""]","[""+16363856105""]",,1116 Rock Creek Elementary School Dr,,63366,,US
08f264628589d0ed03f390237e16b26c,francesca's,women's_clothing_store,,"[""https://www.francescas.com/""]","[""https://www.facebook.com/1586991838057013""]","[""+16362042131""]","{""names"":{""common"":[{""value"":""francesca's"",""language"":""local""}],""official"":null,""alternate"":null,""short"":null},""wikidata"":null}",18517 Outlet Blvd,Chesterfield,63005-0002,MO,US
08f26463a978547303afd51d62290d7d,Doctor John's Lingerie and Novelty Boutique,clothing_store,,"[""http://rangdangdoo.com""]","[""https://www.facebook.com/133205920612445""]","[""+16366850363""]",,3899 Veterans Memorial Pkwy,St Peters,63376-6416,MO,US
08f26462033502d803bacfb4092340dc,The Dance Bag,clothing_store,,"[""http://www.dancebagmo.com""]","[""https://www.facebook.com/178807043714""]","[""+13144539600""]",,64 Four Seasons Shopping Ctr,Chesterfield,63017-3103,MO,US
08f264622663424b03bb7e5f3ccbd3a1,Mod On Trend,women's_clothing_store,,"[""http://www.modontrend.com/""]","[""https://www.facebook.com/284624148698373""]","[""+16368935011""]","{""names"":{""common"":[{""value"":""MOD On TREND"",""language"":""local""}],""official"":null,""alternate"":null,""short"":null},""wikidata"":null}",1650 Beale St,St Charles,63303-4249,MO,US
08f264622681dad403d2dca537935eca,Joys By Austin Warren Design,women's_clothing_store,,"[""http://www.findthejoys.com""]","[""https://www.facebook.com/108432475909531""]","[""+16367242124""]",,600 S Main St,St Charles,63301-3441,MO,US
08f264635d7322cc03c9917dd07e9800,JusLavish Boutique,women's_clothing_store,,"[""http://www.juslavishboutique.com/""]","[""https://www.facebook.com/1754891851462145""]","[""+13147621130""]",,8326 Lackland Rd,St Louis,63114-5104,MO,US
08f264636b7880d10389978b4ab47e6e,Shady Bootz Boutique,clothing_store,,"[""http://shadybootzboutique.com""]","[""https://www.facebook.com/1638575956197857""]","[""+13145851777""]",,6817 W Florissant Ave,Jennings,63136-3636,MO,US
08f264636eda217203e67168f60b502e,Modish Curvy,women's_clothing_store,,"[""http://www.shopmodishcollection.com""]","[""https://www.facebook.com/350099338692362""]","[""+13145288445""]",,3156 Pershall Rd,Ferguson,63136-4444,MO,US
08f264636384d1890392046a03b7f20a,L.A. Flava,women's_clothing_store,,"[""http://laflava.com""]","[""https://www.facebook.com/253217438859288""]","[""+13147915076""]",,4019 Seven Hills Dr,Florissant,63033-6737,MO,US
08f264636149d4e803c16729b02f032f,Fashions R Boutique,women's_clothing_store,,"[""http://fashionsrboutiqueonline.com/""]","[""https://www.facebook.com/347598351960148""]","[""+13148690309""]",,11833 New Halls Ferry Rd,Florissant,63033-6926,MO,US
08f2646aed66e90c03b8c712c830bedb,Rushmore,women's_clothing_store,,"[""http://www.shoprushmore.com""]","[""https://www.facebook.com/103228211027364""]","[""+16184339623""]",,11 E Broadway,Alton,62002-6203,IL,US
08f2646aed662b5903b03ce215b21e2f,The Grapevine of Alton,children's_clothing_store,,"[""http://www.thegrapevineofalton.com""]","[""https://www.facebook.com/146574265378691""]","[""+16184626502""]",,2 W Broadway,Alton,62002-6221,IL,US
08f2646a562158080319a13856462d93,Factory Connection,clothing_store,,"[""http://www.factory-connection.com""]","[""https://www.facebook.com/475052319649347""]","[""+16184338245""]","{""names"":{""common"":[{""value"":""Factory Connection"",""language"":""local""}],""official"":null,""alternate"":null,""short"":null},""wikidata"":null}",5735 Godfrey Rd,Godfrey,62035-2471,IL,US
08f2650442b8632b038700b4a12b8494,Factory Connection,clothing_store,,"[""http://www.factory-connection.com""]","[""https://www.facebook.com/606883249767868""]","[""+16608851039""]","{""names"":{""common"":[{""value"":""Factory Connection"",""language"":""local""}],""official"":null,""alternate"":null,""short"":null},""wikidata"":null}",1714 E Ohio St,Clinton,64735-2402,MO,US
08f26500ca66a589039a7d249736f3bc,Country Charm,women's_clothing_store,,"[""http://www.stylebycountrycharm.com""]","[""https://www.facebook.com/1483322165221764""]","[""+16605961023""]",,230 E Main St,Warsaw,65355-3196,MO,US
08f265630d1016f303b93aaf4e888b05,Ellie Ann and Lucy,children's_clothing_store,,"[""https://www.etsy.com/shop/ellieannandlucy?ref=hdr_shop_menu""]","[""https://www.facebook.com/1652761268357724""]","[""+18168301880""]",,2816 Cumberland Rd,Bates City,64011-8403,MO,US
08f2650ca82d34d1033dc19c7a6de04e,MKT Clothing Co.,women's_clothing_store,,"[""http://www.mktclothing.com""]","[""https://www.facebook.com/230181444213117""]","[""+16606247069""]",,125 N Holden St,Warrensburg,64093-1725,MO,US
08f2654226c99c6d0328b8d0b0e5e033,Sauced Boutique,women's_clothing_store,,"[""http://www.getsaucedandshop.com""]","[""https://www.facebook.com/105339251240649""]","[""+16605382812""]",,608 1st St,Glasgow,65254-1008,MO,US
08f26516ddd4b47003edf7061db221e8,Home Folk,women's_clothing_store,,"[""http://www.homefolk.com""]","[""https://www.facebook.com/244177715643451""]",,,2278 Baker Creek Rd,Mansfield,65704-8313,MO,US
08f265eb73ba61810348ac98b3beeb24,Factory Connection,clothing_store,,"[""http://www.factory-connection.com""]","[""https://www.facebook.com/1792335777555128""]","[""+14172551058""]","{""names"":{""common"":[{""value"":""Factory Connection"",""language"":""local""}],""official"":null,""alternate"":null,""short"":null},""wikidata"":null}",1411 Mitchell Rd,West Plains,65775-7692,MO,US
08f265eb7528ecae036fd094d87167fa,Black Lagoon Clothing,designer_clothing,,"[""http://www.blacklagoonclothing.com/""]",,"[""4175056382""]",,103 S Aid St,West plains,65775,MO,US
08f2651473a9dce203795c6d7bd4fced,Bend The Trenz Fashion,women's_clothing_store,,"[""http://bendthetrenz.com""]","[""https://www.facebook.com/109423503762739""]","[""+14175332429""]",,21890 County Road 32-719,Lebanon,65536-8093,MO,US
08f2651462d33c6203be01292dc2b678,Cali & Co. Rewind//Fast Forward LLC,women's_clothing_store,,"[""https://shoprff.com""]","[""https://www.facebook.com/2070084939951106""]","[""+14175324777""]",,100 E Commercial St,Lebanon,65536-3257,MO,US
08f2651462372a2b031e63c1dac43485,Bubblegum Boutique,children's_clothing_store,,"[""http://www.bubblegumboutique.net""]","[""https://www.facebook.com/307227009738704""]","[""+14175320800""]",,1747 S Jefferson Ave,Lebanon,65536-3760,MO,US
08f264249e210c41032370c9c7f0a403,Front Porch Boutique,women's_clothing_store,,"[""http://www.thefrontporchlabel.com""]","[""https://www.facebook.com/354696444560530""]","[""+15733089080""]",,1901 N Bishop Ave,Rolla,65401-2363,MO,US
08f2673af0804d4903effdeb72294800,Danni Nicole's,women's_clothing_store,,"[""http://www.danninicoles.com""]","[""https://www.facebook.com/185560201460842""]","[""+15732215066""]",,119 N Main St,Hannibal,63401-3536,MO,US
08f2673a6dc34cad03fa0f8e12acb8f5,JR INK.US,fashion,,"[""https://jrink.us""]","[""https://www.facebook.com/107768377484675""]","[""+12173352700""]",,9 Kendall Ave,Barry,62312-2219,IL,US
08f26716c310c423039bc035064c20a5,Backroad Lace Boutique,fashion_accessories_store,,"[""http://www.backroadlaceboutique.com/""]",,"[""2172573848""]",,103 E Washington St,Pittsfield,62363,IL,US
08f265e6739864da03333d60a672bc9e,Ooh la la Yellville Arkansas,clothing_store,,"[""http://oohlalayellville.com/""]",,"[""8704045965""]",,425 Highway 62 E,Yellville,72687,AR,US
08f265e38802c35c032d4ca4827760ad,Urban Chic Boutique,women's_clothing_store,,"[""http://www.shopurbanchicxo.com""]","[""https://www.facebook.com/102210011137599""]",,,,Mountain Home,,AR,US
08f265e3881660b203c00c569966b838,Freckles Chic,women's_clothing_store,,"[""http://shopfreckleschic.com""]","[""https://www.facebook.com/113277602071502""]","[""+18704259667""]",,503 S College St,Mountain Home,72653-3924,AR,US
08f2658d6d8db5aa03f203697e1b0964,Zen + Zeus Clothing Co.,women's_clothing_store,,"[""https://zenandzeus.com/""]","[""https://www.facebook.com/100553972125091""]","[""+18708569387""]",,100 W Main St,Hardy,72542-9538,AR,US
08f26ed7a156236d0300036355f1dbab,Black Market Arkansas // BLK MKT ARK,clothing_store,,"[""http://www.blkmktark.com""]","[""https://www.facebook.com/569742299815317""]","[""+14792498734""]",,121 W Township St,Fayetteville,72703-2816,AR,US
08f26ed44b6ec41d034ddefeb50611ef,francesca's,women's_clothing_store,,"[""https://www.francescas.com/""]","[""https://www.facebook.com/432898656737049""]","[""+14793391035""]","{""names"":{""common"":[{""value"":""francesca's"",""language"":""local""}],""official"":null,""alternate"":null,""short"":null},""wikidata"":null}",4201 N Shiloh Dr,Fayetteville,72703-5180,AR,US
08f26ed44bd733a903e508a3e9a5a264,Max and Addy,clothing_store,,"[""http://www.maxandaddy.com""]","[""https://www.facebook.com/1010595775655687""]","[""+14695249335""]",,4262 S Thompson St Suite C,,72764,,US
08f26ed44c0417260340df9d14a9e07b,L.S Boutique,clothing_store,,"[""http://shoplogonstitch.com""]","[""https://www.facebook.com/525266007564698""]","[""+14796594875""]",,529 Holcomb St,Springdale,72764-5324,AR,US
08f26ed44c12975e0366d7d9ec040739,The Uncommon Label,clothing_store,,"[""http://theuncommonlabel.com""]","[""https://www.facebook.com/111332027666895""]","[""+14792009161""]",,132 W Emma Ave,Springdale,72764-4305,AR,US
08f26ed44d913b1a038e0de37a731bda,Impressions Online Boutique,clothing_store,,"[""http://shopimpressions.com""]","[""https://www.facebook.com/145008682233269""]","[""+14793012292""]",,2002 Ford Ave,Springdale,72764-4788,AR,US
08f26ed7240e28c0032c002dd80a2898,Motis & CO Boutique,women's_clothing_store,,"[""http://www.therusticcactus.com""]","[""https://www.facebook.com/167578963924660""]","[""+14793874776""]",,2206 S Maple St,Carthage,64836-2808,MO,US
08f26ed3b382a79d035b2569a9918d49,Hooked for Life Gift Shop,women's_clothing_store,,"[""http://www.shophookedforlife.com""]","[""https://www.facebook.com/1868177413450369""]","[""+14797381613""]",,200 N Parrott Dr,Huntsville,72740-9533,AR,US
08f26ed55bc4062803675e687310fbb9,Apricot Lane Boutique,women's_clothing_store,,"[""https://apricotlaneboutique.com/rogers/""]",,"[""4795537086""]",,3938 S Grand Ave Ste C100,Rogers,72758,AR,US
08f26ed5582ca86a0359784be4c96e6a,francesca's,women's_clothing_store,,"[""https://www.francescas.com/""]","[""https://www.facebook.com/426902724165668""]","[""+14793586491""]","{""names"":{""common"":[{""value"":""francesca's"",""language"":""local""}],""official"":null,""alternate"":null,""short"":null},""wikidata"":null}",2203 S Promenade Blvd,Rogers,72758-8819,AR,US
08f26ed5582c1a0503cc36c2d9817e4b,fab'rik Rogers,women's_clothing_store,,"[""http://www.fabrikstyle.com""]","[""https://www.facebook.com/108718537325653""]","[""+14793726015""]",,2203 S Promenade Blvd,Rogers,72758-8819,AR,US
08f26ed550b03865032be7e03a7fe9bf,Southern Style,children's_clothing_store,,"[""http://www.southernstylebentonville.com""]","[""https://www.facebook.com/598825800258329""]","[""+14797156610""]",,116 S Main St,Bentonville,72712-5961,AR,US
08f26ed54ebadb3503e7a50118f310fa,Curvy Chick's,women's_clothing_store,,"[""http://curvy-chicks.com""]","[""https://www.facebook.com/106039954130011""]","[""+14797211311""]",,314 W Walnut St,Rogers,72756-4567,AR,US
08f26ed54eb540d4037bbe868e6e57aa,Women's Pavilion,clothing_store,,"[""http://www.mywomenspavilion.com""]","[""https://www.facebook.com/258355645319""]","[""+14799367050""]",,122 S 1st St,Rogers,72756-4502,AR,US
08f26ed56695c65a036722875c9cb8bf,Broken Window Creations,women's_clothing_store,,"[""https://www.brokenwindow.boutique""]","[""https://www.facebook.com/270907476710476""]","[""+14798024857""]",,827 Slack St,Pea Ridge,72751-3703,AR,US
08f26ed16e269d19032056e5513907b3,Wonderfully Made,children's_clothing_store,,"[""https://hellowonderfullymade.com""]","[""https://www.facebook.com/389116971202176""]","[""+18703505505""]",,103 Public Sq,Berryville,72616-3936,AR,US
08f26ed10829ac9c03452ae7b95f1925,Regalia Handmade Clothing Studio,women's_clothing_store,,"[""http://www.regaliahandmadeclothing.com""]","[""https://www.facebook.com/342486538890""]","[""+14792532202""]",,16 White St,Eureka Springs,72632-3038,AR,US
08f26eda63b26c5b03a2b084a17661b9,The Calamity Cactus,clothing_store,,"[""http://www.calamitycactus.com""]","[""https://www.facebook.com/305028510109414""]","[""+18702044091""]",,123 E Stephenson Ave,Harrison,72601-4327,AR,US
08f26eda6386c54503506676326dea0a,Luxe on Rush,women's_clothing_store,,"[""http://www.luxeonrush.com""]","[""https://www.facebook.com/103408504592888""]","[""+18707435893""]",,117 W Rush Ave,Harrison,72601-4218,AR,US
08f26eda6149308d034e3ecbea92a7b5,Frenzy of Harrison,women's_clothing_store,,"[""http://www.frenzyofharrison.com""]","[""https://www.facebook.com/235937997784""]","[""+18707410926""]",,105 W Rush Ave,Harrison,72601-4218,AR,US
08f26ec28a9acaf6037e34666200f5d0,Factory Connection,clothing_store,,"[""http://www.factory-connection.com""]","[""https://www.facebook.com/187461878835694""]","[""+19187869029""]","{""names"":{""common"":[{""value"":""Factory Connection"",""language"":""local""}],""official"":null,""alternate"":null,""short"":null},""wikidata"":null}",1108 S Main St,Grove,74344-2800,OK,US
08f26ecb995585080328f73a09bb4826,The Babe Cave,women's_clothing_store,,"[""http://babecavejoplin.com/""]","[""https://www.facebook.com/101172282340580""]","[""+14174372088""]",,813 S Maiden Ln,Joplin,64801-3803,MO,US
08f26ecb886e667303ad9d37e4739477,Chico's,women's_clothing_store,,"[""https://www.chicos.com/locations/us/mo/joplin/320-geneva-ave/""]","[""https://www.facebook.com/241863276247192""]","[""+14172063300""]","{""names"":{""common"":[{""value"":""Chico's"",""language"":""local""}],""official"":null,""alternate"":null,""short"":null},""wikidata"":null}",320 Geneva Ave,Joplin,64801-5508,MO,US
08f26ecb8862e8f6039719e3b62c9eef,francesca's,women's_clothing_store,,"[""https://www.francescas.com/""]","[""https://www.facebook.com/1129239967098035""]","[""+14176805000""]","{""names"":{""common"":[{""value"":""francesca's"",""language"":""local""}],""official"":null,""alternate"":null,""short"":null},""wikidata"":null}",101 N Range Line Rd,Joplin,64801-1601,MO,US
08f26ecb8c682795037230663fd17def,Dandelions Children's Resale Boutique,children's_clothing_store,,"[""http://dandelionsresale.com/""]","[""https://www.facebook.com/100939559269323""]",,,2501 N Rangeline Rd,Joplin,64801-8392,MO,US
08f26ecbaac484a40359dddee03d39ad,Twisted Oak Boutique,women's_clothing_store,,"[""http://www.twistedoak.boutique""]","[""https://www.facebook.com/1739313296366588""]","[""+14176732881""]",,32 S Main St,Webb City,64870-2379,MO,US
08f26ecb0178ca18038d7c85bf21019f,Sincerely Yours Boutique,women's_clothing_store,,"[""http://shopsincerelyyours.com""]","[""https://www.facebook.com/236936793818150""]","[""+14173882409""]",,127 E 3rd St,Carthage,64836-1620,MO,US
08f26e1a226a8a15032bee174c3759cd,Jae & Co.,women's_clothing_store,,"[""http://shopjaeandco.com""]","[""https://www.facebook.com/377180643083786""]","[""+16204730428""]",,818 Bridge St,Humboldt,66748-1832,KS,US
08f26ec8103a6c0403e2d0b7d4cc74e0,Gorilla Country,clothing_store,,"[""http://www.gorillacountry.com""]","[""https://www.facebook.com/207840989378766""]","[""+16203085128""]",,104 E Kansas St,Pittsburg,66762-5210,KS,US
08f2652744a41734033c329f8a834a83,Angie Dawn's,women's_clothing_store,,"[""http://www.angiedawns.com""]","[""https://www.facebook.com/111346560683617""]","[""+16202242693""]",,108 Scott Ave,Fort Scott,66701-1421,KS,US
08f2652744a725290303977db6bdcd06,Laree + Co.,children's_clothing_store,,"[""http://www.lareeandco.com""]","[""https://www.facebook.com/351194025401474""]","[""+16206448229""]",,3 S National Ave,Fort Scott,66701-1308,KS,US
08f2640cee78412803e4d749fe723628,Peace By Piece Co.,women's_clothing_store,,"[""http://www.peacebypiececo.com""]","[""https://www.facebook.com/189088174364""]","[""+16182331519""]",,2427 N Illinois St,Swansea,62226-2948,IL,US
08f2640ce81a986b03ac60702592c98b,Eureka's Ware Boutique,designer_clothing,,"[""https://eurekasware.com/""]",,"[""6187461510""]",,1506 West Blvd,Belleville,62221,IL,US
08f2640c504536060365b0cc66722949,Mod On Trend,women's_clothing_store,,"[""http://modontrend.com""]","[""https://www.facebook.com/109518815142986""]","[""+16189773061""]","{""names"":{""common"":[{""value"":""MOD On TREND"",""language"":""local""}],""official"":null,""alternate"":null,""short"":null},""wikidata"":null}",3220 Green Mount Crossing Dr,O'Fallon,62269-7284,IL,US
08f2640ce438e09403d3a3189f8d6ac8,Chico's,women's_clothing_store,,"[""https://www.chicos.com/locations/us/il/fairview-heights/6540-n-illinois-street/""]","[""https://www.facebook.com/1031301003648756""]","[""+16186242671""]","{""names"":{""common"":[{""value"":""Chico's"",""language"":""local""}],""official"":null,""alternate"":null,""short"":null},""wikidata"":null}",6540 N Illinois St,Fairview Heights,62208-2002,IL,US
08f2640ce4303c4a03ae256d2b264580,Windsor Fashions,women's_clothing_store,,"[""https://www.windsorstore.com/pages/il-fairview-heights-fairview-heights-st-clair-square?utm_source=fb_place&utm_medium=retail""]","[""https://www.facebook.com/312852999492931""]","[""+16186880130""]","{""names"":{""common"":[{""value"":""Windsor Fashions"",""language"":""local""}],""official"":null,""alternate"":null,""short"":null},""wikidata"":null}",134 St Clair Sq,Fairview Heights,62208-2135,IL,US
08f2640c50920bb3038d2bff5acaf2d4,Little Peek Boutique,children's_clothing_store,,"[""http://littlepeekboutique.com""]","[""https://www.facebook.com/1881902315374046""]","[""+16186320701""]",,701 S Lincoln Ave,O'Fallon,62269-2665,IL,US
08f264088218551803397a0ef1179a13,Blended Blessings Boutique,clothing_store,,"[""https://blendedblessings.myshopify.com/""]","[""https://www.facebook.com/2637251126288960""]",,,571 W 3rd St,Trenton,62293-1013,IL,US
08f264579ac7045c03029638a1b7ed9e,Little Britches Children's Boutique and Gear,children's_clothing_store,,"[""http://littlebritchesboutique.ecwid.com""]","[""https://www.facebook.com/101325876674897""]","[""+16182424595""]",,3300 Broadway St,Mt Vernon,62864-2310,IL,US
08f264579a82a181035c1099e51da56f,Laced n Grace,children's_clothing_store,,"[""http://www.lacedngrace.com""]","[""https://www.facebook.com/247043765448937""]","[""+16183156789""]",,3917 Broadway,Mt Vernon,62864-2205,IL,US
08f2640d18973ac6038bd3479dad93f3,Mod On Trend,women's_clothing_store,,"[""http://modontrend.com""]","[""https://www.facebook.com/100642372712702""]","[""+16186599797""]","{""names"":{""common"":[{""value"":""MOD On TREND"",""language"":""local""}],""official"":null,""alternate"":null,""short"":null},""wikidata"":null}",1013 Century Dr,Edwardsville,62025-3772,IL,US
08f2640d0e68628d036457c7adddf695,MOD On TREND,women's_clothing_store,,"[""https://modontrend.com""]","[""https://www.facebook.com/526169520741324""]","[""+13147361601""]",,871 S Arbor Vitae,Edwardsville,62025-3779,IL,US
08f2640d03889648031a6ee385970142,Charlie Rae,children's_clothing_store,,"[""https://charlierae.com/""]","[""https://www.facebook.com/103468548880120""]","[""+13148963505""]",,100 N Main St,Edwardsville,62025-1902,IL,US
08f2640d03bb0d2e0317b6ea9a56e77c,The Charlie Belle Shop,children's_clothing_store,,"[""http://www.thecharliebelleshop.com""]","[""https://www.facebook.com/101460838060127""]","[""+16189101912""]",,216 S Buchanan St,Edwardsville,62025-2109,IL,US
08f2640d0385e42903027a45002e27a9,Glik's,clothing_store,,"[""https://www.gliks.com/""]","[""https://www.facebook.com/280395852124029""]","[""+16186550084""]","{""names"":{""common"":[{""value"":""Glik's"",""language"":""local""}],""official"":null,""alternate"":null,""short"":null},""wikidata"":null}",124 S Buchanan St,Edwardsville,62025-1705,IL,US
08f2644699d2c03003243ae8e0d31676,ReLoved Leather,fashion_accessories_store,,"[""http://reloveleather.com""]","[""https://www.facebook.com/214283612038505""]","[""+15013528866""]",,2 Holiday Point Pkwy,Edwardsville,62025-5612,IL,US
08f2644723748a990343a502a5e02876,MyFormals,women's_clothing_store,,"[""http://www.myformals.com""]","[""https://www.facebook.com/192828500322""]","[""+12173244513""]",,1200 N Old Route 66,Litchfield,62056-1062,IL,US
08f26444466ad25c03ed086c59be0f22,Brave Hazel Boutique,women's_clothing_store,,"[""https://www.bravehazel.com/""]",,"[""2175564920""]",,1100 E1st N,Carlinville,62626,IL,US
